ONEWEB-0694             
1 56722U 23068N   26119.26838411  .00000032  00000+0  50635-4 0  9990
2 56722  87.9098 238.4668 0001607 114.6867 245.4431 13.16595671145332
ONEWEB-0696             
1 56723U 23068P   26118.96357545 -.00000025  00000+0 -10118-3 0  9996
2 56723  87.8955 269.0389 0002024  85.5792 274.5570 13.15549391142893
ONEWEB-0703             
1 56724U 23068Q   26119.12519875 -.00000126  00000+0 -36918-3 0  9990
2 56724  87.8953 268.9875 0002631  88.1147 272.0285 13.15550066142805
ONEWEB-0721             
1 56725U 23068R   26119.18835376  .00000132  00000+0  28302-3 0  9997
2 56725  86.6727 101.1573 0001983  86.0435 274.0925 13.22466723151460
ONEWEB-0015             
1 61594U 24188A   26119.25063328 -.00000392  00000+0 -11406-2 0  9995
2 61594  87.8928  30.8233 0001986  96.0565 264.0790 13.11418544 78042
ONEWEB-0687             
1 61595U 24188B   26119.25195222  .00000060  00000+0  12052-3 0  9994
2 61595  87.9175  15.6037 0001467  95.2167 264.9132 13.17648084 79459
ONEWEB-0688             
1 61596U 24188C   26119.20470939  .00000065  00000+0  13456-3 0  9995
2 61596  87.9174  15.6127 0002382 111.6583 248.4802 13.17648324 79448
ONEWEB-0689             
1 61597U 24188D   26119.20826181  .00000548  00000+0  15093-2 0  9994
2 61597  87.8943  30.7814 0001486  79.0327 281.0968 13.11416413 78036
ONEWEB-0690             
1 61598U 24188E   26119.21844123  .00000191  00000+0  50418-3 0  9997
2 61598  87.8932  30.7956 0002438  73.5853 286.5543 13.11413652 78214
ONEWEB-0691             
1 61599U 24188F   26119.21335432  .00000466  00000+0  12788-2 0  9998
2 61599  87.8943  30.7006 0001828  92.2336 267.9001 13.11415355 78066
ONEWEB-0692             
1 61600U 24188G   26119.23368074 -.00000431  00000+0 -12521-2 0  9990
2 61600  87.8924  30.8189 0001513  52.4513 307.6752 13.11415690 78053
ONEWEB-0693             
1 61601U 24188H   26119.21652246  .00000026  00000+0  34198-4 0  9990
2 61601  87.9173  15.6320 0002621  78.9736 281.1690 13.17647894 79439
ONEWEB-0695             
1 61602U 24188J   26119.20995548  .00000305  00000+0  82368-3 0  9996
2 61602  87.8920  30.8159 0001258  68.1721 291.9541 13.11416957 78046
ONEWEB-0697             
1 61603U 24188K   26119.24215992 -.00000498  00000+0 -14420-2 0  9997
2 61603  87.8928  30.7987 0001640  53.7545 306.3734 13.11417374 78030
ONEWEB-0698             
1 61604U 24188L   26119.22012480  .00000125  00000+0  31745-3 0  9998
2 61604  87.8923  30.8185 0002487  52.1767 307.9586 13.11415841 78057
ONEWEB-0699             
1 61605U 24188M   26119.19399875 -.00000303  00000+0 -90414-3 0  9999
2 61605  87.8851  46.0148 0001761  56.9761 303.1535 13.10370834 76899
