[{"OBJECT_NAME":"ONEWEB-0694","OBJECT_ID":"2023-068N","EPOCH":"2026-04-29T06:26:28.387104","MEAN_MOTION":13.16595671,"ECCENTRICITY":0.0001607,"INCLINATION":87.9098,"RA_OF_ASC_NODE":238.4668,"ARG_OF_PERICENTER":114.6867,"MEAN_ANOMALY":245.4431,"EPHEMERIS_TYPE":0,"CLASSIFICATION_TYPE":"U","NORAD_CAT_ID":56722,"ELEMENT_SET_NO":999,"REV_AT_EPOCH":14533,"BSTAR":5.0635e-05,"MEAN_MOTION_DOT":3.2e-07,"MEAN_MOTION_DDOT":0.0},{"OBJECT_NAME":"ONEWEB-0696","OBJECT_ID":"2023-068P","EPOCH":"2026-04-28T23:07:32.918880","MEAN_MOTION":13.15549391,"ECCENTRICITY":0.0002024,"INCLINATION":87.8955,"RA_OF_ASC_NODE":269.0389,"ARG_OF_PERICENTER":85.5792,"MEAN_ANOMALY":274.557,"EPHEMERIS_TYPE":0,"CLASSIFICATION_TYPE":"U","NORAD_CAT_ID":56723,"ELEMENT_SET_NO":999,"REV_AT_EPOCH":14289,"BSTAR":-0.00010118,"MEAN_MOTION_DOT":-2.5e-07,"MEAN_MOTION_DDOT":0.0},{"OBJECT_NAME":"ONEWEB-0703","OBJECT_ID":"2023-068Q","EPOCH":"2026-04-29T03:00:17.172000","MEAN_MOTION":13.15550066,"ECCENTRICITY":0.0002631,"INCLINATION":87.8953,"RA_OF_ASC_NODE":268.9875,"ARG_OF_PERICENTER":88.1147,"MEAN_ANOMALY":272.0285,"EPHEMERIS_TYPE":0,"CLASSIFICATION_TYPE":"U","NORAD_CAT_ID":56724,"ELEMENT_SET_NO":999,"REV_AT_EPOCH":14280,"BSTAR":-0.00036918000000000004,"MEAN_MOTION_DOT":-1.26e-06,"MEAN_MOTION_DDOT":0.0},{"OBJECT_NAME":"ONEWEB-0721","OBJECT_ID":"2023-068R","EPOCH":"2026-04-29T04:31:13.764864","MEAN_MOTION":13.22466723,"ECCENTRICITY":0.0001983,"INCLINATION":86.6727,"RA_OF_ASC_NODE":101.1573,"ARG_OF_PERICENTER":86.0435,"MEAN_ANOMALY":274.0925,"EPHEMERIS_TYPE":0,"CLASSIFICATION_TYPE":"U","NORAD_CAT_ID":56725,"ELEMENT_SET_NO":999,"REV_AT_EPOCH":15146,"BSTAR":0.00028302,"MEAN_MOTION_DOT":1.32e-06,"MEAN_MOTION_DDOT":0.0},{"OBJECT_NAME":"ONEWEB-0015","OBJECT_ID":"2024-188A","EPOCH":"2026-04-29T06:00:54.715392","MEAN_MOTION":13.11418544,"ECCENTRICITY":0.0001986,"INCLINATION":87.8928,"RA_OF_ASC_NODE":30.8233,"ARG_OF_PERICENTER":96.0565,"MEAN_ANOMALY":264.079,"EPHEMERIS_TYPE":0,"CLASSIFICATION_TYPE":"U","NORAD_CAT_ID":61594,"ELEMENT_SET_NO":999,"REV_AT_EPOCH":7804,"BSTAR":-0.0011406,"MEAN_MOTION_DOT":-3.92e-06,"MEAN_MOTION_DDOT":0.0},{"OBJECT_NAME":"ONEWEB-0687","OBJECT_ID":"2024-188B","EPOCH":"2026-04-29T06:02:48.671808","MEAN_MOTION":13.17648084,"ECCENTRICITY":0.0001467,"INCLINATION":87.9175,"RA_OF_ASC_NODE":15.6037,"ARG_OF_PERICENTER":95.2167,"MEAN_ANOMALY":264.9132,"EPHEMERIS_TYPE":0,"CLASSIFICATION_TYPE":"U","NORAD_CAT_ID":61595,"ELEMENT_SET_NO":999,"REV_AT_EPOCH":7945,"BSTAR":0.00012052,"MEAN_MOTION_DOT":6e-07,"MEAN_MOTION_DDOT":0.0},{"OBJECT_NAME":"ONEWEB-0688","OBJECT_ID":"2024-188C","EPOCH":"2026-04-29T04:54:46.891296","MEAN_MOTION":13.17648324,"ECCENTRICITY":0.0002382,"INCLINATION":87.9174,"RA_OF_ASC_NODE":15.6127,"ARG_OF_PERICENTER":111.6583,"MEAN_ANOMALY":248.4802,"EPHEMERIS_TYPE":0,"CLASSIFICATION_TYPE":"U","NORAD_CAT_ID":61596,"ELEMENT_SET_NO":999,"REV_AT_EPOCH":7944,"BSTAR":0.00013456,"MEAN_MOTION_DOT":6.5e-07,"MEAN_MOTION_DDOT":0.0},{"OBJECT_NAME":"ONEWEB-0689","OBJECT_ID":"2024-188D","EPOCH":"2026-04-29T04:59:53.820384","MEAN_MOTION":13.11416413,"ECCENTRICITY":0.0001486,"INCLINATION":87.8943,"RA_OF_ASC_NODE":30.7814,"ARG_OF_PERICENTER":79.0327,"MEAN_ANOMALY":281.0968,"EPHEMERIS_TYPE":0,"CLASSIFICATION_TYPE":"U","NORAD_CAT_ID":61597,"ELEMENT_SET_NO":999,"REV_AT_EPOCH":7803,"BSTAR":0.0015093,"MEAN_MOTION_DOT":5.48e-06,"MEAN_MOTION_DDOT":0.0},{"OBJECT_NAME":"ONEWEB-0690","OBJECT_ID":"2024-188E","EPOCH":"2026-04-29T05:14:33.322272","MEAN_MOTION":13.11413652,"ECCENTRICITY":0.0002438,"INCLINATION":87.8932,"RA_OF_ASC_NODE":30.7956,"ARG_OF_PERICENTER":73.5853,"MEAN_ANOMALY":286.5543,"EPHEMERIS_TYPE":0,"CLASSIFICATION_TYPE":"U","NORAD_CAT_ID":61598,"ELEMENT_SET_NO":999,"REV_AT_EPOCH":7821,"BSTAR":0.00050418,"MEAN_MOTION_DOT":1.91e-06,"MEAN_MOTION_DDOT":0.0},{"OBJECT_NAME":"ONEWEB-0691","OBJECT_ID":"2024-188F","EPOCH":"2026-04-29T05:07:13.813248","MEAN_MOTION":13.11415355,"ECCENTRICITY":0.0001828,"INCLINATION":87.8943,"RA_OF_ASC_NODE":30.7006,"ARG_OF_PERICENTER":92.2336,"MEAN_ANOMALY":267.9001,"EPHEMERIS_TYPE":0,"CLASSIFICATION_TYPE":"U","NORAD_CAT_ID":61599,"ELEMENT_SET_NO":999,"REV_AT_EPOCH":7806,"BSTAR":0.0012787999999999999,"MEAN_MOTION_DOT":4.66e-06,"MEAN_MOTION_DDOT":0.0},{"OBJECT_NAME":"ONEWEB-0692","OBJECT_ID":"2024-188G","EPOCH":"2026-04-29T05:36:30.015936","MEAN_MOTION":13.1141569,"ECCENTRICITY":0.0001513,"INCLINATION":87.8924,"RA_OF_ASC_NODE":30.8189,"ARG_OF_PERICENTER":52.4513,"MEAN_ANOMALY":307.6752,"EPHEMERIS_TYPE":0,"CLASSIFICATION_TYPE":"U","NORAD_CAT_ID":61600,"ELEMENT_SET_NO":999,"REV_AT_EPOCH":7805,"BSTAR":-0.0012521,"MEAN_MOTION_DOT":-4.31e-06,"MEAN_MOTION_DDOT":0.0},{"OBJECT_NAME":"ONEWEB-0693","OBJECT_ID":"2024-188H","EPOCH":"2026-04-29T05:11:47.540544","MEAN_MOTION":13.17647894,"ECCENTRICITY":0.0002621,"INCLINATION":87.9173,"RA_OF_ASC_NODE":15.632,"ARG_OF_PERICENTER":78.9736,"MEAN_ANOMALY":281.169,"EPHEMERIS_TYPE":0,"CLASSIFICATION_TYPE":"U","NORAD_CAT_ID":61601,"ELEMENT_SET_NO":999,"REV_AT_EPOCH":7943,"BSTAR":3.4198e-05,"MEAN_MOTION_DOT":2.6e-07,"MEAN_MOTION_DDOT":0.0},{"OBJECT_NAME":"ONEWEB-0695","OBJECT_ID":"2024-188J","EPOCH":"2026-04-29T05:02:20.153472","MEAN_MOTION":13.11416957,"ECCENTRICITY":0.0001258,"INCLINATION":87.892,"RA_OF_ASC_NODE":30.8159,"ARG_OF_PERICENTER":68.1721,"MEAN_ANOMALY":291.9541,"EPHEMERIS_TYPE":0,"CLASSIFICATION_TYPE":"U","NORAD_CAT_ID":61602,"ELEMENT_SET_NO":999,"REV_AT_EPOCH":7804,"BSTAR":0.00082368,"MEAN_MOTION_DOT":3.05e-06,"MEAN_MOTION_DDOT":0.0},{"OBJECT_NAME":"ONEWEB-0697","OBJECT_ID":"2024-188K","EPOCH":"2026-04-29T05:48:42.617088","MEAN_MOTION":13.11417374,"ECCENTRICITY":0.000164,"INCLINATION":87.8928,"RA_OF_ASC_NODE":30.7987,"ARG_OF_PERICENTER":53.7545,"MEAN_ANOMALY":306.3734,"EPHEMERIS_TYPE":0,"CLASSIFICATION_TYPE":"U","NORAD_CAT_ID":61603,"ELEMENT_SET_NO":999,"REV_AT_EPOCH":7803,"BSTAR":-0.001442,"MEAN_MOTION_DOT":-4.98e-06,"MEAN_MOTION_DDOT":0.0},{"OBJECT_NAME":"ONEWEB-0698","OBJECT_ID":"2024-188L","EPOCH":"2026-04-29T05:16:58.782720","MEAN_MOTION":13.11415841,"ECCENTRICITY":0.0002487,"INCLINATION":87.8923,"RA_OF_ASC_NODE":30.8185,"ARG_OF_PERICENTER":52.1767,"MEAN_ANOMALY":307.9586,"EPHEMERIS_TYPE":0,"CLASSIFICATION_TYPE":"U","NORAD_CAT_ID":61604,"ELEMENT_SET_NO":999,"REV_AT_EPOCH":7805,"BSTAR":0.00031745,"MEAN_MOTION_DOT":1.25e-06,"MEAN_MOTION_DDOT":0.0},{"OBJECT_NAME":"ONEWEB-0699","OBJECT_ID":"2024-188M","EPOCH":"2026-04-29T04:39:21.492000","MEAN_MOTION":13.10370834,"ECCENTRICITY":0.0001761,"INCLINATION":87.8851,"RA_OF_ASC_NODE":46.0148,"ARG_OF_PERICENTER":56.9761,"MEAN_ANOMALY":303.1535,"EPHEMERIS_TYPE":0,"CLASSIFICATION_TYPE":"U","NORAD_CAT_ID":61605,"ELEMENT_SET_NO":999,"REV_AT_EPOCH":7689,"BSTAR":-0.0009041400000000001,"MEAN_MOTION_DOT":-3.03e-06,"MEAN_MOTION_DDOT":0.0}]